ONEWEB-0273             
1 48991U 21060AA  23264.47464622  .00000108  00000+0  24855-3 0  9997
2 48991  87.9005  67.7538 0001937  87.8331 272.3022 13.16593925108043
ONEWEB-0274             
1 48992U 21060AB  23264.72797195  .00000007  00000+0 -16557-4 0  9990
2 48992  87.9005  67.7071 0002131 108.4001 251.7362 13.16593748109410
ONEWEB-0275             
1 48993U 21060AC  23264.48941379  .00000004  00000+0 -24062-4 0  9996
2 48993  87.8998  67.7572 0001767  90.2509 269.8824 13.16597979108010
ONEWEB-0276             
1 48994U 21060AD  23264.75120768  .00000153  00000+0  36562-3 0  9999
2 48994  87.9005  67.6923 0002112  86.1928 273.9444 13.16593923109362
ONEWEB-0277             
1 48995U 21060AE  23264.45986358  .00000158  00000+0  37948-3 0  9996
2 48995  87.9111  67.7687 0002354  91.6803 268.4598 13.16596754108015
ONEWEB-0278             
1 48996U 21060AF  23264.75329890  .00000180  00000+0  43678-3 0  9994
2 48996  87.9005  67.6881 0001448  82.4161 277.7134 13.16592823109496
ONEWEB-0279             
1 48997U 21060AG  23264.76174208  .00000092  00000+0  20572-3 0  9997
2 48997  87.9006  67.6842 0001752  92.6737 267.4594 13.16592451109410
ONEWEB-0280             
1 48998U 21060AH  23264.47254834  .00000060  00000+0  12278-3 0  9999
2 48998  87.9006  67.7418 0002573  93.9173 266.2252 13.16594748108015
